[{"OBJECT_NAME":"ISS (ZARYA)","OBJECT_ID":"1998-067A","EPOCH":"2026-04-18T01:41:27.917664","MEAN_MOTION":15.48808425,"ECCENTRICITY":0.00065768,"INCLINATION":51.6329,"RA_OF_ASC_NODE":237.6272,"ARG_OF_PERICENTER":320.1418,"MEAN_ANOMALY":39.9086,"EPHEMERIS_TYPE":0,"CLASSIFICATION_TYPE":"U","NORAD_CAT_ID":25544,"ELEMENT_SET_NO":999,"REV_AT_EPOCH":56243,"BSTAR":0.00014068517,"MEAN_MOTION_DOT":7.259e-5,"MEAN_MOTION_DDOT":0},{"OBJECT_NAME":"POISK","OBJECT_ID":"2009-060A","EPOCH":"2026-04-18T01:41:27.917664","MEAN_MOTION":15.48808425,"ECCENTRICITY":0.00065768,"INCLINATION":51.6329,"RA_OF_ASC_NODE":237.6272,"ARG_OF_PERICENTER":320.1418,"MEAN_ANOMALY":39.9086,"EPHEMERIS_TYPE":0,"CLASSIFICATION_TYPE":"U","NORAD_CAT_ID":36086,"ELEMENT_SET_NO":999,"REV_AT_EPOCH":56149,"BSTAR":0.00014068517,"MEAN_MOTION_DOT":7.259e-5,"MEAN_MOTION_DDOT":0},{"OBJECT_NAME":"CSS (TIANHE)","OBJECT_ID":"2021-035A","EPOCH":"2026-04-18T01:06:05.945760","MEAN_MOTION":15.62499605,"ECCENTRICITY":0.00061782,"INCLINATION":41.4679,"RA_OF_ASC_NODE":328.3459,"ARG_OF_PERICENTER":229.5609,"MEAN_ANOMALY":130.4692,"EPHEMERIS_TYPE":0,"CLASSIFICATION_TYPE":"U","NORAD_CAT_ID":48274,"ELEMENT_SET_NO":999,"REV_AT_EPOCH":28376,"BSTAR":0.0002235689,"MEAN_MOTION_DOT":0.00020203,"MEAN_MOTION_DDOT":0},{"OBJECT_NAME":"ISS (NAUKA)","OBJECT_ID":"2021-066A","EPOCH":"2026-04-18T01:41:27.917664","MEAN_MOTION":15.48808425,"ECCENTRICITY":0.00065768,"INCLINATION":51.6329,"RA_OF_ASC_NODE":237.6272,"ARG_OF_PERICENTER":320.1418,"MEAN_ANOMALY":39.9086,"EPHEMERIS_TYPE":0,"CLASSIFICATION_TYPE":"U","NORAD_CAT_ID":49044,"ELEMENT_SET_NO":999,"REV_AT_EPOCH":56153,"BSTAR":0.00014068517,"MEAN_MOTION_DOT":7.259e-5,"MEAN_MOTION_DDOT":0},{"OBJECT_NAME":"FREGAT DEB","OBJECT_ID":"2011-037PF","EPOCH":"2026-04-18T05:41:05.715744","MEAN_MOTION":12.40993473,"ECCENTRICITY":0.09454156,"INCLINATION":51.6415,"RA_OF_ASC_NODE":181.9872,"ARG_OF_PERICENTER":150.0785,"MEAN_ANOMALY":215.7731,"EPHEMERIS_TYPE":0,"CLASSIFICATION_TYPE":"U","NORAD_CAT_ID":49271,"ELEMENT_SET_NO":999,"REV_AT_EPOCH":21760,"BSTAR":0.0016109183,"MEAN_MOTION_DOT":9.8e-6,"MEAN_MOTION_DDOT":0},{"OBJECT_NAME":"CSS (WENTIAN)","OBJECT_ID":"2022-085A","EPOCH":"2026-04-18T01:06:05.945760","MEAN_MOTION":15.62499605,"ECCENTRICITY":0.00061782,"INCLINATION":41.4679,"RA_OF_ASC_NODE":328.3459,"ARG_OF_PERICENTER":229.5609,"MEAN_ANOMALY":130.4692,"EPHEMERIS_TYPE":0,"CLASSIFICATION_TYPE":"U","NORAD_CAT_ID":53239,"ELEMENT_SET_NO":999,"REV_AT_EPOCH":28313,"BSTAR":0.0002235689,"MEAN_MOTION_DOT":0.00020203,"MEAN_MOTION_DDOT":0},{"OBJECT_NAME":"CSS (MENGTIAN)","OBJECT_ID":"2022-143A","EPOCH":"2026-04-18T01:06:05.945760","MEAN_MOTION":15.62499605,"ECCENTRICITY":0.00061782,"INCLINATION":41.4679,"RA_OF_ASC_NODE":328.3459,"ARG_OF_PERICENTER":229.5609,"MEAN_ANOMALY":130.4692,"EPHEMERIS_TYPE":0,"CLASSIFICATION_TYPE":"U","NORAD_CAT_ID":54216,"ELEMENT_SET_NO":999,"REV_AT_EPOCH":28415,"BSTAR":0.0002235689,"MEAN_MOTION_DOT":0.00020203,"MEAN_MOTION_DDOT":0},{"OBJECT_NAME":"TIANZHOU-9","OBJECT_ID":"2025-149A","EPOCH":"2026-04-18T01:06:05.945760","MEAN_MOTION":15.62499605,"ECCENTRICITY":0.00061782,"INCLINATION":41.4679,"RA_OF_ASC_NODE":328.3459,"ARG_OF_PERICENTER":229.5609,"MEAN_ANOMALY":130.4692,"EPHEMERIS_TYPE":0,"CLASSIFICATION_TYPE":"U","NORAD_CAT_ID":64786,"ELEMENT_SET_NO":999,"REV_AT_EPOCH":28415,"BSTAR":0.0002235689,"MEAN_MOTION_DOT":0.00020203,"MEAN_MOTION_DDOT":0},{"OBJECT_NAME":"PROGRESS-MS 32","OBJECT_ID":"2025-204A","EPOCH":"2026-04-18T01:41:27.917664","MEAN_MOTION":15.48808425,"ECCENTRICITY":0.00065768,"INCLINATION":51.6329,"RA_OF_ASC_NODE":237.6272,"ARG_OF_PERICENTER":320.1418,"MEAN_ANOMALY":39.9086,"EPHEMERIS_TYPE":0,"CLASSIFICATION_TYPE":"U","NORAD_CAT_ID":65586,"ELEMENT_SET_NO":999,"REV_AT_EPOCH":55450,"BSTAR":0.00014068517,"MEAN_MOTION_DOT":7.259e-5,"MEAN_MOTION_DDOT":0},{"OBJECT_NAME":"BOTAN","OBJECT_ID":"1998-067XQ","EPOCH":"2026-04-17T13:53:58.801056","MEAN_MOTION":16.23557719,"ECCENTRICITY":0.00122707,"INCLINATION":51.6107,"RA_OF_ASC_NODE":211.5971,"ARG_OF_PERICENTER":329.0663,"MEAN_ANOMALY":30.9633,"EPHEMERIS_TYPE":0,"CLASSIFICATION_TYPE":"U","NORAD_CAT_ID":65943,"ELEMENT_SET_NO":999,"REV_AT_EPOCH":2970,"BSTAR":0.00093483788,"MEAN_MOTION_DOT":0.02522212,"MEAN_MOTION_DDOT":1.197244e-5},{"OBJECT_NAME":"HRC MONOBLOCK CAMERA","OBJECT_ID":"1998-067XR","EPOCH":"2026-04-17T17:32:46.144032","MEAN_MOTION":15.66506716,"ECCENTRICITY":0.00041907,"INCLINATION":51.6269,"RA_OF_ASC_NODE":227.8484,"ARG_OF_PERICENTER":296.2015,"MEAN_ANOMALY":63.8549,"EPHEMERIS_TYPE":0,"CLASSIFICATION_TYPE":"U","NORAD_CAT_ID":66052,"ELEMENT_SET_NO":999,"REV_AT_EPOCH":2850,"BSTAR":0.00040201665,"MEAN_MOTION_DOT":0.00042457,"MEAN_MOTION_DDOT":0},{"OBJECT_NAME":"HTV-X1","OBJECT_ID":"2025-241A","EPOCH":"2026-04-18T02:26:59.254944","MEAN_MOTION":15.32678705,"ECCENTRICITY":0.00076097,"INCLINATION":51.6364,"RA_OF_ASC_NODE":243.0063,"ARG_OF_PERICENTER":325.5223,"MEAN_ANOMALY":34.5264,"EPHEMERIS_TYPE":0,"CLASSIFICATION_TYPE":"U","NORAD_CAT_ID":66174,"ELEMENT_SET_NO":999,"REV_AT_EPOCH":2698,"BSTAR":0.00019270038,"MEAN_MOTION_DOT":5.808e-5,"MEAN_MOTION_DDOT":0},{"OBJECT_NAME":"SZ-21 MODULE","OBJECT_ID":"2025-246C","EPOCH":"2026-04-17T23:59:17.409984","MEAN_MOTION":15.71618408,"ECCENTRICITY":0.00045046,"INCLINATION":41.474,"RA_OF_ASC_NODE":320.8041,"ARG_OF_PERICENTER":286.6997,"MEAN_ANOMALY":73.3351,"EPHEMERIS_TYPE":0,"CLASSIFICATION_TYPE":"U","NORAD_CAT_ID":66515,"ELEMENT_SET_NO":999,"REV_AT_EPOCH":2425,"BSTAR":0.00023455966,"MEAN_MOTION_DOT":0.00030878,"MEAN_MOTION_DDOT":0},{"OBJECT_NAME":"SHENZHOU-22","OBJECT_ID":"2025-272A","EPOCH":"2026-04-18T01:06:05.945760","MEAN_MOTION":15.62499605,"ECCENTRICITY":0.00061782,"INCLINATION":41.4679,"RA_OF_ASC_NODE":328.3459,"ARG_OF_PERICENTER":229.5609,"MEAN_ANOMALY":130.4692,"EPHEMERIS_TYPE":0,"CLASSIFICATION_TYPE":"U","NORAD_CAT_ID":66645,"ELEMENT_SET_NO":999,"REV_AT_EPOCH":28415,"BSTAR":0.0002235689,"MEAN_MOTION_DOT":0.00020203,"MEAN_MOTION_DDOT":0},{"OBJECT_NAME":"SOYUZ-MS 28","OBJECT_ID":"2025-275A","EPOCH":"2026-04-18T01:41:27.917664","MEAN_MOTION":15.48808425,"ECCENTRICITY":0.00065768,"INCLINATION":51.6329,"RA_OF_ASC_NODE":237.6272,"ARG_OF_PERICENTER":320.1418,"MEAN_ANOMALY":39.9086,"EPHEMERIS_TYPE":0,"CLASSIFICATION_TYPE":"U","NORAD_CAT_ID":66664,"ELEMENT_SET_NO":999,"REV_AT_EPOCH":56177,"BSTAR":0.00014068517,"MEAN_MOTION_DOT":7.259e-5,"MEAN_MOTION_DDOT":0},{"OBJECT_NAME":"DUPLEX","OBJECT_ID":"1998-067XS","EPOCH":"2026-04-17T17:24:08.410176","MEAN_MOTION":15.5869267,"ECCENTRICITY":0.00041056,"INCLINATION":51.6288,"RA_OF_ASC_NODE":233.8209,"ARG_OF_PERICENTER":305.2412,"MEAN_ANOMALY":54.8196,"EPHEMERIS_TYPE":0,"CLASSIFICATION_TYPE":"U","NORAD_CAT_ID":66906,"ELEMENT_SET_NO":999,"REV_AT_EPOCH":2121,"BSTAR":0.00024294836,"MEAN_MOTION_DOT":0.00018595,"MEAN_MOTION_DDOT":0}]
