ISS (ZARYA)             
1 25544U 98067A   26108.07046201  .00007259  00000+0  14069-3 0  9992
2 25544  51.6329 237.6272 0006576 320.1418  39.9086 15.48808425562430
CSS (TIANHE)            
1 48274U 21035A   26108.04590215  .00020203  00000+0  22357-3 0  9997
2 48274  41.4679 328.3459 0006178 229.5609 130.4692 15.62499605283765
HTV-X1                  
1 66174U 25241A   26108.10207471  .00005808  00000+0  19270-3 0  9999
2 66174  51.6364 243.0063 0007609 325.5223  34.5264 15.32678705 26986
SZ-21 MODULE            
1 66515U 25246C   26107.99950706  .00030878  00000+0  23456-3 0  9991
2 66515  41.4740 320.8041 0004504 286.6997  73.3351 15.71618408 24259
POISK                   
1 36086U 09060A   26108.07046201  .00007259  00000+0  14069-3 0  9990
2 36086  51.6329 237.6272 0006576 320.1418  39.9086 15.48808425561498
ISS (NAUKA)             
1 49044U 21066A   26108.07046201  .00007259  00000+0  14069-3 0  9998
2 49044  51.6329 237.6272 0006576 320.1418  39.9086 15.48808425561531
FREGAT DEB              
1 49271U 11037PF  26108.23687171  .00000980  00000+0  16109-2 0  9992
2 49271  51.6415 181.9872 0945415 150.0785 215.7731 12.40993473217601
CSS (WENTIAN)           
1 53239U 22085A   26108.04590215  .00020203  00000+0  22357-3 0  9990
2 53239  41.4679 328.3459 0006178 229.5609 130.4692 15.62499605283133
CSS (MENGTIAN)          
1 54216U 22143A   26108.04590215  .00020203  00000+0  22357-3 0  9991
2 54216  41.4679 328.3459 0006178 229.5609 130.4692 15.62499605284152
TIANZHOU-9              
1 64786U 25149A   26108.04590215  .00020203  00000+0  22357-3 0  9993
2 64786  41.4679 328.3459 0006178 229.5609 130.4692 15.62499605284155
PROGRESS-MS 32          
1 65586U 25204A   26108.07046201  .00007259  00000+0  14069-3 0  9995
2 65586  51.6329 237.6272 0006576 320.1418  39.9086 15.48808425554509
BOTAN                   
1 65943U 98067XQ  26107.57915279  .02522212  11972-4  93484-3 0  9999
2 65943  51.6107 211.5971 0012270 329.0663  30.9633 16.23557719 29704
HRC MONOBLOCK CAMERA    
1 66052U 98067XR  26107.73108963  .00042457  00000+0  40202-3 0  9994
2 66052  51.6269 227.8484 0004190 296.2015  63.8549 15.66506716 28507
SHENZHOU-22             
1 66645U 25272A   26108.04590215  .00020203  00000+0  22357-3 0  9996
2 66645  41.4679 328.3459 0006178 229.5609 130.4692 15.62499605284151
SOYUZ-MS 28             
1 66664U 25275A   26108.07046201  .00007259  00000+0  14069-3 0  9991
2 66664  51.6329 237.6272 0006576 320.1418  39.9086 15.48808425561774
DUPLEX                  
1 66906U 98067XS  26107.72509734  .00018595  00000+0  24295-3 0  9992
2 66906  51.6288 233.8209 0004105 305.2412  54.8196 15.58692670 21211
